{"type":"FeatureCollection","features":[{"type":"Feature","properties":{"id":"srodmiescie-wschod","name":"Śródmieście-Wschód","population":20800},"geometry":{"type":"Polygon","coordinates":[[[19.020581,50.1272],[19.020143,50.128724],[19.01939,50.130191],[19.01817,50.131556],[19.016396,50.132676],[19.01398,50.133082],[19.011618,50.133105],[19.009338,50.133333],[19.006974,50.13316],[19.004933,50.132371],[19.003028,50.131444],[19.001458,50.130242],[19.000741,50.128742],[19.000388,50.1272],[19.000847,50.125675],[19.002312,50.124445],[19.003778,50.123382],[19.005269,50.122341],[19.007157,50.121549],[19.00934,50.121075],[19.011655,50.121102],[19.013841,50.121553],[19.016032,50.122062],[19.017929,50.122981],[19.019342,50.124225],[19.020436,50.12563],[19.020581,50.1272]]]}},{"type":"Feature","properties":{"id":"srodmiescie-zachod","name":"Śródmieście-Zachód","population":17000},"geometry":{"type":"Polygon","coordinates":[[[18.998147,50.1198],[18.998055,50.121041],[18.997987,50.12242],[18.996982,50.123652],[18.994879,50.124146],[18.993038,50.124598],[18.99125,50.125347],[18.989114,50.125534],[18.987015,50.125185],[18.985246,50.124402],[18.983823,50.123422],[18.982394,50.122427],[18.981709,50.121142],[18.981449,50.1198],[18.981372,50.118405],[18.982193,50.117106],[18.983465,50.115974],[18.984877,50.114855],[18.986897,50.114215],[18.989169,50.114355],[18.991228,50.114371],[18.993383,50.114419],[18.995168,50.115186],[18.996465,50.116241],[18.99737,50.117387],[18.997918,50.11858],[18.998147,50.1198]]]}},{"type":"Feature","properties":{"id":"srodmiescie-polnoc","name":"Śródmieście-Północ","population":17500},"geometry":{"type":"Polygon","coordinates":[[[19.013035,50.1366],[19.012452,50.137904],[19.01128,50.138982],[19.010024,50.139907],[19.008593,50.14068],[19.006945,50.14124],[19.005163,50.141685],[19.003175,50.142008],[19.000969,50.142061],[18.998806,50.141608],[18.9971,50.140632],[18.996063,50.139337],[18.995856,50.137918],[18.995808,50.1366],[18.995769,50.135268],[18.996392,50.133973],[18.997475,50.132782],[18.999169,50.131928],[19.001153,50.13145],[19.003139,50.130997],[19.005286,50.130869],[19.007375,50.131235],[19.009056,50.13209],[19.010531,50.133005],[19.012079,50.133949],[19.012913,50.135224],[19.013035,50.1366]]]}},{"type":"Feature","properties":{"id":"osiedle-no","name":"Osiedle N/O","population":10500},"geometry":{"type":"Polygon","coordinates":[[[19.00678,50.1136],[19.006437,50.114491],[19.005937,50.115329],[19.005023,50.115999],[19.003948,50.116524],[19.002845,50.117058],[19.001498,50.117288],[19.000109,50.117248],[18.998603,50.117315],[18.997213,50.116933],[18.996501,50.116042],[18.995865,50.115261],[18.995251,50.114477],[18.995352,50.1136],[18.995618,50.112781],[18.99586,50.111937],[18.996359,50.111077],[18.997374,50.110417],[18.998756,50.110143],[19.00011,50.109956],[19.001506,50.109874],[19.002914,50.110025],[19.004261,50.110384],[19.005496,50.110932],[19.006434,50.111704],[19.006882,50.112639],[19.00678,50.1136]]]}},{"type":"Feature","properties":{"id":"osiedle-tu","name":"Osiedle T/U","population":13500},"geometry":{"type":"Polygon","coordinates":[[[19.000336,50.0982],[19.000344,50.099171],[18.999888,50.100115],[18.99896,50.100905],[18.997822,50.101566],[18.996613,50.102282],[18.99504,50.102639],[18.993428,50.102279],[18.992059,50.101821],[18.990674,50.101477],[18.989475,50.100885],[18.988777,50.100026],[18.988222,50.099145],[18.987757,50.0982],[18.98805,50.097228],[18.98883,50.096392],[18.989473,50.095514],[18.990211,50.094493],[18.991584,50.093776],[18.993349,50.093707],[18.994972,50.09412],[18.99636,50.094546],[18.997685,50.094961],[18.998756,50.095611],[18.999613,50.096378],[19.00012,50.097264],[19.000336,50.0982]]]}},{"type":"Feature","properties":{"id":"osiedle-mp","name":"Osiedle M/P","population":11000},"geometry":{"type":"Polygon","coordinates":[[[19.024188,50.1332],[19.023917,50.134103],[19.02355,50.135],[19.022669,50.135738],[19.021404,50.136176],[19.020235,50.136639],[19.018947,50.137144],[19.017466,50.137075],[19.01609,50.136767],[19.014655,50.136492],[19.013737,50.135734],[19.013335,50.134837],[19.012771,50.134058],[19.012306,50.1332],[19.012176,50.132248],[19.012635,50.131328],[19.013707,50.130649],[19.014772,50.130016],[19.016022,50.129519],[19.01748,50.1294],[19.01892,50.129397],[19.020335,50.129591],[19.021715,50.129936],[19.022916,50.130522],[19.023619,50.131377],[19.024098,50.132268],[19.024188,50.1332]]]}},{"type":"Feature","properties":{"id":"stare-tychy","name":"Stare Tychy","population":7500},"geometry":{"type":"Polygon","coordinates":[[[18.990779,50.1236],[18.990623,50.124394],[18.990123,50.125122],[18.989292,50.125697],[18.988434,50.126233],[18.987474,50.126768],[18.986236,50.126958],[18.984975,50.126901],[18.983746,50.126734],[18.982487,50.126492],[18.981452,50.125956],[18.981004,50.125147],[18.980801,50.124358],[18.98055,50.1236],[18.980359,50.122772],[18.980753,50.121969],[18.981668,50.121367],[18.982586,50.1208],[18.983641,50.120289],[18.984932,50.120072],[18.986259,50.120119],[18.987533,50.120333],[18.988655,50.120762],[18.989429,50.121425],[18.989852,50.122169],[18.99036,50.122848],[18.990779,50.1236]]]}},{"type":"Feature","properties":{"id":"paprocany","name":"Paprocany","population":8200},"geometry":{"type":"Polygon","coordinates":[[[19.016434,50.0906],[19.016277,50.091782],[19.015488,50.092852],[19.014403,50.093785],[19.013238,50.094725],[19.011616,50.095364],[19.009731,50.095518],[19.007927,50.095213],[19.006276,50.09487],[19.004578,50.094524],[19.003153,50.09381],[19.002228,50.092813],[19.001711,50.091721],[19.001291,50.0906],[19.001487,50.089444],[19.002164,50.088365],[19.002823,50.087203],[19.0041,50.086231],[19.005917,50.085724],[19.007883,50.085753],[19.009686,50.08592],[19.011484,50.08606],[19.01318,50.086529],[19.014604,50.087301],[19.015507,50.088342],[19.016109,50.089444],[19.016434,50.0906]]]}},{"type":"Feature","properties":{"id":"zwakow","name":"Żwaków","population":9500},"geometry":{"type":"Polygon","coordinates":[[[18.978772,50.1042],[18.978794,50.105242],[18.978582,50.106348],[18.977959,50.107472],[18.976599,50.108288],[18.974809,50.108612],[18.973079,50.108844],[18.971316,50.108872],[18.969568,50.108651],[18.96802,50.108084],[18.966976,50.107168],[18.965963,50.1063],[18.965178,50.10531],[18.965013,50.1042],[18.965375,50.103121],[18.966331,50.102224],[18.967263,50.101394],[18.968155,50.100442],[18.969505,50.099642],[18.971279,50.099334],[18.973067,50.099619],[18.974567,50.100198],[18.975863,50.100796],[18.977207,50.101355],[18.978427,50.102104],[18.978831,50.103152],[18.978772,50.1042]]]}},{"type":"Feature","properties":{"id":"wilkowyje","name":"Wilkowyje","population":3600},"geometry":{"type":"Polygon","coordinates":[[[18.958523,50.13],[18.958139,50.13078],[18.957625,50.131489],[18.95687,50.132084],[18.955932,50.132537],[18.954931,50.132926],[18.95383,50.133324],[18.952555,50.133403],[18.95133,50.133161],[18.950217,50.13277],[18.949524,50.132087],[18.949091,50.131383],[18.948549,50.130735],[18.948293,50.13],[18.948576,50.129269],[18.948857,50.128539],[18.949303,50.127787],[18.950387,50.127388],[18.951545,50.127203],[18.952639,50.127037],[18.953759,50.127051],[18.954876,50.127167],[18.956062,50.127342],[18.957277,50.127685],[18.95819,50.128321],[18.958605,50.129146],[18.958523,50.13]]]}},{"type":"Feature","properties":{"id":"czulow","name":"Czułów","population":4500},"geometry":{"type":"Polygon","coordinates":[[[18.99432,50.1528],[18.994031,50.153595],[18.993518,50.154319],[18.992855,50.154988],[18.992075,50.155654],[18.991039,50.156244],[18.989686,50.156421],[18.988358,50.15619],[18.98711,50.155994],[18.985935,50.155646],[18.985153,50.154983],[18.984454,50.154329],[18.983861,50.153612],[18.9839,50.1528],[18.984026,50.152015],[18.984238,50.151199],[18.985045,50.150555],[18.985944,50.149963],[18.987077,50.149552],[18.988384,50.14955],[18.989609,50.149587],[18.990823,50.14972],[18.991983,50.150031],[18.99287,50.150603],[18.993496,50.151288],[18.994125,50.151991],[18.99432,50.1528]]]}},{"type":"Feature","properties":{"id":"urbanowice","name":"Urbanowice-Cielmice","population":3900},"geometry":{"type":"Polygon","coordinates":[[[19.050624,50.1098],[19.05037,50.11068],[19.04972,50.111456],[19.048993,50.112182],[19.048181,50.112941],[19.047026,50.113564],[19.045549,50.113758],[19.044047,50.113779],[19.042637,50.113457],[19.041646,50.112731],[19.040807,50.112068],[19.040005,50.111414],[19.039362,50.11066],[19.039058,50.1098],[19.039215,50.108917],[19.03966,50.10807],[19.04043,50.107317],[19.041347,50.106592],[19.042546,50.105988],[19.044029,50.105727],[19.045542,50.10588],[19.046882,50.106279],[19.048186,50.106654],[19.049155,50.107326],[19.049565,50.108196],[19.050125,50.108958],[19.050624,50.1098]]]}}]}